[{"OBJECT_NAME":"MANDRAKE 2 BAKER","OBJECT_ID":"2021-059AF","EPOCH":"2026-03-06T01:53:11.305248","MEAN_MOTION":15.54124936,"ECCENTRICITY":0.00040415,"INCLINATION":97.7023,"RA_OF_ASC_NODE":249.5555,"ARG_OF_PERICENTER":14.6266,"MEAN_ANOMALY":345.5103,"EPHEMERIS_TYPE":0,"CLASSIFICATION_TYPE":"U","NORAD_CAT_ID":48908,"ELEMENT_SET_NO":999,"REV_AT_EPOCH":26125,"BSTAR":0.00040873363,"MEAN_MOTION_DOT":0.00026494,"MEAN_MOTION_DDOT":0},{"OBJECT_NAME":"PACE-1","OBJECT_ID":"2021-059AG","EPOCH":"2026-03-06T06:12:23.680224","MEAN_MOTION":15.66055393,"ECCENTRICITY":0.00027632,"INCLINATION":97.6844,"RA_OF_ASC_NODE":252.9315,"ARG_OF_PERICENTER":327.6231,"MEAN_ANOMALY":32.4858,"EPHEMERIS_TYPE":0,"CLASSIFICATION_TYPE":"U","NORAD_CAT_ID":48909,"ELEMENT_SET_NO":999,"REV_AT_EPOCH":26162,"BSTAR":0.00057641499,"MEAN_MOTION_DOT":0.0005914,"MEAN_MOTION_DDOT":0},{"OBJECT_NAME":"YAM-3","OBJECT_ID":"2021-059AN","EPOCH":"2026-03-06T05:53:14.015040","MEAN_MOTION":15.46020103,"ECCENTRICITY":0.00054308,"INCLINATION":97.6972,"RA_OF_ASC_NODE":245.6606,"ARG_OF_PERICENTER":19.7303,"MEAN_ANOMALY":340.4155,"EPHEMERIS_TYPE":0,"CLASSIFICATION_TYPE":"U","NORAD_CAT_ID":48915,"ELEMENT_SET_NO":999,"REV_AT_EPOCH":26107,"BSTAR":0.00033951879,"MEAN_MOTION_DOT":0.00016498,"MEAN_MOTION_DDOT":0},{"OBJECT_NAME":"FARADAY_PHOENIX","OBJECT_ID":"2021-059AX","EPOCH":"2026-03-06T02:28:51.987072","MEAN_MOTION":15.59877504,"ECCENTRICITY":0.00063929,"INCLINATION":97.6907,"RA_OF_ASC_NODE":253.2805,"ARG_OF_PERICENTER":343.0808,"MEAN_ANOMALY":17.0234,"EPHEMERIS_TYPE":0,"CLASSIFICATION_TYPE":"U","NORAD_CAT_ID":48924,"ELEMENT_SET_NO":999,"REV_AT_EPOCH":26150,"BSTAR":0.00080661707,"MEAN_MOTION_DOT":0.00065207,"MEAN_MOTION_DDOT":0},{"OBJECT_NAME":"DEMO8 (TENZING)","OBJECT_ID":"2021-059CA","EPOCH":"2026-03-06T01:57:52.748928","MEAN_MOTION":15.50789367,"ECCENTRICITY":0.00072904,"INCLINATION":97.7043,"RA_OF_ASC_NODE":250.9477,"ARG_OF_PERICENTER":9.5698,"MEAN_ANOMALY":350.5691,"EPHEMERIS_TYPE":0,"CLASSIFICATION_TYPE":"U","NORAD_CAT_ID":48951,"ELEMENT_SET_NO":999,"REV_AT_EPOCH":26130,"BSTAR":0.00038426649,"MEAN_MOTION_DOT":0.00022094,"MEAN_MOTION_DDOT":0},{"OBJECT_NAME":"NAPA-2","OBJECT_ID":"2021-059CN","EPOCH":"2026-03-06T06:48:32.723712","MEAN_MOTION":15.70216142,"ECCENTRICITY":0.00035937,"INCLINATION":97.6842,"RA_OF_ASC_NODE":252.436,"ARG_OF_PERICENTER":329.0208,"MEAN_ANOMALY":31.0841,"EPHEMERIS_TYPE":0,"CLASSIFICATION_TYPE":"U","NORAD_CAT_ID":48963,"ELEMENT_SET_NO":999,"REV_AT_EPOCH":26154,"BSTAR":0.00073288465,"MEAN_MOTION_DOT":0.00089424,"MEAN_MOTION_DDOT":0},{"OBJECT_NAME":"JILIN-1 GAOFEN 3D03","OBJECT_ID":"2021-061D","EPOCH":"2026-03-06T07:48:05.285952","MEAN_MOTION":15.78504876,"ECCENTRICITY":0.00025397,"INCLINATION":97.3032,"RA_OF_ASC_NODE":142.1284,"ARG_OF_PERICENTER":142.7819,"MEAN_ANOMALY":217.3624,"EPHEMERIS_TYPE":0,"CLASSIFICATION_TYPE":"U","NORAD_CAT_ID":49006,"ELEMENT_SET_NO":999,"REV_AT_EPOCH":26001,"BSTAR":0.0009882466,"MEAN_MOTION_DOT":0.00173881,"MEAN_MOTION_DDOT":0},{"OBJECT_NAME":"XINGSHIDAI 10","OBJECT_ID":"2021-061E","EPOCH":"2026-03-03T17:42:31.608576","MEAN_MOTION":15.75382982,"ECCENTRICITY":0.00023446,"INCLINATION":97.3036,"RA_OF_ASC_NODE":139.0902,"ARG_OF_PERICENTER":135.6876,"MEAN_ANOMALY":224.4577,"EPHEMERIS_TYPE":0,"CLASSIFICATION_TYPE":"U","NORAD_CAT_ID":49007,"ELEMENT_SET_NO":999,"REV_AT_EPOCH":25958,"BSTAR":0.0012676278,"MEAN_MOTION_DOT":0.00194955,"MEAN_MOTION_DDOT":0},{"OBJECT_NAME":"FENGYUN 3E","OBJECT_ID":"2021-062A","EPOCH":"2026-03-06T07:40:14.793024","MEAN_MOTION":14.19894014,"ECCENTRICITY":0.0002416,"INCLINATION":98.7509,"RA_OF_ASC_NODE":69.8706,"ARG_OF_PERICENTER":48.6101,"MEAN_ANOMALY":311.5283,"EPHEMERIS_TYPE":0,"CLASSIFICATION_TYPE":"U","NORAD_CAT_ID":49008,"ELEMENT_SET_NO":999,"REV_AT_EPOCH":24198,"BSTAR":9.4756463e-5,"MEAN_MOTION_DOT":1.57e-6,"MEAN_MOTION_DDOT":0},{"OBJECT_NAME":"ISS (NAUKA)","OBJECT_ID":"2021-066A","EPOCH":"2026-03-06T05:19:41.493792","MEAN_MOTION":15.48470661,"ECCENTRICITY":0.00081363,"INCLINATION":51.6317,"RA_OF_ASC_NODE":89.5003,"ARG_OF_PERICENTER":162.2758,"MEAN_ANOMALY":197.8515,"EPHEMERIS_TYPE":0,"CLASSIFICATION_TYPE":"U","NORAD_CAT_ID":49044,"ELEMENT_SET_NO":999,"REV_AT_EPOCH":55445,"BSTAR":0.00015844115,"MEAN_MOTION_DOT":8.136e-5,"MEAN_MOTION_DDOT":0},{"OBJECT_NAME":"STARLINK-3100","OBJECT_ID":"2021-082Q","EPOCH":"2026-03-06T02:18:49.899168","MEAN_MOTION":14.9832087,"ECCENTRICITY":0.00025531,"INCLINATION":69.9987,"RA_OF_ASC_NODE":303.5063,"ARG_OF_PERICENTER":269.7619,"MEAN_ANOMALY":90.3247,"EPHEMERIS_TYPE":0,"CLASSIFICATION_TYPE":"U","NORAD_CAT_ID":49144,"ELEMENT_SET_NO":999,"REV_AT_EPOCH":24544,"BSTAR":0.00045914365,"MEAN_MOTION_DOT":5.388e-5,"MEAN_MOTION_DDOT":0},{"OBJECT_NAME":"CUTE","OBJECT_ID":"2021-088D","EPOCH":"2026-03-06T05:31:19.548768","MEAN_MOTION":15.66395101,"ECCENTRICITY":0.00032893,"INCLINATION":97.4233,"RA_OF_ASC_NODE":157.2385,"ARG_OF_PERICENTER":333.9417,"MEAN_ANOMALY":26.1677,"EPHEMERIS_TYPE":0,"CLASSIFICATION_TYPE":"U","NORAD_CAT_ID":49263,"ELEMENT_SET_NO":999,"REV_AT_EPOCH":24633,"BSTAR":0.00058663176,"MEAN_MOTION_DOT":0.00061033,"MEAN_MOTION_DDOT":0},{"OBJECT_NAME":"2021-091B","OBJECT_ID":"2021-091B","EPOCH":"2026-03-06T07:29:35.635200","MEAN_MOTION":15.17949065,"ECCENTRICITY":0.00145337,"INCLINATION":97.4476,"RA_OF_ASC_NODE":254.4768,"ARG_OF_PERICENTER":43.8441,"MEAN_ANOMALY":316.3944,"EPHEMERIS_TYPE":0,"CLASSIFICATION_TYPE":"U","NORAD_CAT_ID":49316,"ELEMENT_SET_NO":999,"REV_AT_EPOCH":24337,"BSTAR":0.00016897375,"MEAN_MOTION_DOT":3.371e-5,"MEAN_MOTION_DDOT":0},{"OBJECT_NAME":"SDGSAT 1","OBJECT_ID":"2021-100A","EPOCH":"2026-03-06T07:29:41.843904","MEAN_MOTION":15.19332309,"ECCENTRICITY":0.00064421,"INCLINATION":97.2777,"RA_OF_ASC_NODE":116.0401,"ARG_OF_PERICENTER":299.7095,"MEAN_ANOMALY":60.3498,"EPHEMERIS_TYPE":0,"CLASSIFICATION_TYPE":"U","NORAD_CAT_ID":49387,"ELEMENT_SET_NO":999,"REV_AT_EPOCH":24029,"BSTAR":0.00012820444,"MEAN_MOTION_DOT":2.643e-5,"MEAN_MOTION_DDOT":0},{"OBJECT_NAME":"TEIKYOSAT-4 (OORURI)","OBJECT_ID":"2021-102B","EPOCH":"2026-03-06T02:16:31.360224","MEAN_MOTION":15.09097556,"ECCENTRICITY":0.00105315,"INCLINATION":97.3798,"RA_OF_ASC_NODE":98.5483,"ARG_OF_PERICENTER":290.5956,"MEAN_ANOMALY":69.4143,"EPHEMERIS_TYPE":0,"CLASSIFICATION_TYPE":"U","NORAD_CAT_ID":49396,"ELEMENT_SET_NO":999,"REV_AT_EPOCH":23717,"BSTAR":0.00018168436,"MEAN_MOTION_DOT":2.822e-5,"MEAN_MOTION_DDOT":0},{"OBJECT_NAME":"Z-SAT","OBJECT_ID":"2021-102E","EPOCH":"2026-03-06T06:56:54.947904","MEAN_MOTION":15.17380902,"ECCENTRICITY":0.00152853,"INCLINATION":97.3463,"RA_OF_ASC_NODE":103.7259,"ARG_OF_PERICENTER":243.7376,"MEAN_ANOMALY":116.2288,"EPHEMERIS_TYPE":0,"CLASSIFICATION_TYPE":"U","NORAD_CAT_ID":49399,"ELEMENT_SET_NO":999,"REV_AT_EPOCH":23783,"BSTAR":0.0002091599,"MEAN_MOTION_DOT":4.123e-5,"MEAN_MOTION_DDOT":0},{"OBJECT_NAME":"HIBARI","OBJECT_ID":"2021-102F","EPOCH":"2026-03-06T02:34:20.330400","MEAN_MOTION":15.29445466,"ECCENTRICITY":0.00117379,"INCLINATION":97.338,"RA_OF_ASC_NODE":112.2741,"ARG_OF_PERICENTER":199.2537,"MEAN_ANOMALY":160.8262,"EPHEMERIS_TYPE":0,"CLASSIFICATION_TYPE":"U","NORAD_CAT_ID":49400,"ELEMENT_SET_NO":999,"REV_AT_EPOCH":23842,"BSTAR":0.00041197628,"MEAN_MOTION_DOT":0.00011716,"MEAN_MOTION_DDOT":0},{"OBJECT_NAME":"KOSEN-1","OBJECT_ID":"2021-102H","EPOCH":"2026-03-06T01:36:11.311776","MEAN_MOTION":15.2523889,"ECCENTRICITY":0.00135412,"INCLINATION":97.3326,"RA_OF_ASC_NODE":109.2625,"ARG_OF_PERICENTER":205.6559,"MEAN_ANOMALY":154.4009,"EPHEMERIS_TYPE":0,"CLASSIFICATION_TYPE":"U","NORAD_CAT_ID":49402,"ELEMENT_SET_NO":999,"REV_AT_EPOCH":23829,"BSTAR":0.00038293639,"MEAN_MOTION_DOT":9.581e-5,"MEAN_MOTION_DDOT":0},{"OBJECT_NAME":"GLOBAL-14","OBJECT_ID":"2021-106A","EPOCH":"2026-03-06T07:35:37.227840","MEAN_MOTION":15.45493281,"ECCENTRICITY":0.00128114,"INCLINATION":42.0046,"RA_OF_ASC_NODE":180.1673,"ARG_OF_PERICENTER":22.3189,"MEAN_ANOMALY":337.8209,"EPHEMERIS_TYPE":0,"CLASSIFICATION_TYPE":"U","NORAD_CAT_ID":49469,"ELEMENT_SET_NO":999,"REV_AT_EPOCH":24218,"BSTAR":0.00062007603,"MEAN_MOTION_DOT":0.00030385,"MEAN_MOTION_DDOT":0},{"OBJECT_NAME":"GAOFEN-3 02","OBJECT_ID":"2021-109A","EPOCH":"2026-03-06T07:12:00.179712","MEAN_MOTION":14.42215577,"ECCENTRICITY":0.00018006,"INCLINATION":98.4125,"RA_OF_ASC_NODE":74.8421,"ARG_OF_PERICENTER":324.2888,"MEAN_ANOMALY":35.8181,"EPHEMERIS_TYPE":0,"CLASSIFICATION_TYPE":"U","NORAD_CAT_ID":49495,"ELEMENT_SET_NO":999,"REV_AT_EPOCH":22548,"BSTAR":8.4470478e-5,"MEAN_MOTION_DOT":2.35e-6,"MEAN_MOTION_DDOT":0},{"OBJECT_NAME":"GLOBAL-12","OBJECT_ID":"2021-115BA","EPOCH":"2026-03-06T06:33:33.176160","MEAN_MOTION":15.47586318,"ECCENTRICITY":0.00030289,"INCLINATION":53.1962,"RA_OF_ASC_NODE":177.2077,"ARG_OF_PERICENTER":56.0912,"MEAN_ANOMALY":304.0384,"EPHEMERIS_TYPE":0,"CLASSIFICATION_TYPE":"U","NORAD_CAT_ID":49772,"ELEMENT_SET_NO":999,"REV_AT_EPOCH":23993,"BSTAR":0.00064600732,"MEAN_MOTION_DOT":0.00033536,"MEAN_MOTION_DDOT":0},{"OBJECT_NAME":"GLOBAL-13","OBJECT_ID":"2021-115BB","EPOCH":"2026-03-05T14:56:34.317024","MEAN_MOTION":15.41953894,"ECCENTRICITY":0.0002204,"INCLINATION":53.1987,"RA_OF_ASC_NODE":185.4572,"ARG_OF_PERICENTER":135.8652,"MEAN_ANOMALY":224.2531,"EPHEMERIS_TYPE":0,"CLASSIFICATION_TYPE":"U","NORAD_CAT_ID":49773,"ELEMENT_SET_NO":999,"REV_AT_EPOCH":23976,"BSTAR":0.00062843,"MEAN_MOTION_DOT":0.00026843,"MEAN_MOTION_DDOT":0},{"OBJECT_NAME":"GLOBAL-17","OBJECT_ID":"2021-120A","EPOCH":"2026-03-05T23:11:30.300288","MEAN_MOTION":15.46758226,"ECCENTRICITY":0.00120901,"INCLINATION":41.9958,"RA_OF_ASC_NODE":301.9119,"ARG_OF_PERICENTER":251.8807,"MEAN_ANOMALY":108.0719,"EPHEMERIS_TYPE":0,"CLASSIFICATION_TYPE":"U","NORAD_CAT_ID":49949,"ELEMENT_SET_NO":999,"REV_AT_EPOCH":23888,"BSTAR":0.00056905203,"MEAN_MOTION_DOT":0.00029099,"MEAN_MOTION_DDOT":0}]
